[{"OBJECT_NAME":"STARLINK-2622","OBJECT_ID":"2021-038H","EPOCH":"2026-03-09T22:47:25.613664","MEAN_MOTION":15.3018784,"ECCENTRICITY":0.00014174,"INCLINATION":53.1617,"RA_OF_ASC_NODE":356.9441,"ARG_OF_PERICENTER":103.4919,"MEAN_ANOMALY":256.624,"EPHEMERIS_TYPE":0,"CLASSIFICATION_TYPE":"U","NORAD_CAT_ID":48360,"ELEMENT_SET_NO":999,"REV_AT_EPOCH":26711,"BSTAR":-2.1226596e-5,"MEAN_MOTION_DOT":-9.88e-6,"MEAN_MOTION_DDOT":0},{"OBJECT_NAME":"SIMSAT 2","OBJECT_ID":"2000-026B","EPOCH":"2026-03-09T20:25:01.673184","MEAN_MOTION":15.29036787,"ECCENTRICITY":0.00037035,"INCLINATION":86.3514,"RA_OF_ASC_NODE":176.4271,"ARG_OF_PERICENTER":287.9875,"MEAN_ANOMALY":72.0969,"EPHEMERIS_TYPE":0,"CLASSIFICATION_TYPE":"U","NORAD_CAT_ID":26366,"ELEMENT_SET_NO":999,"REV_AT_EPOCH":42803,"BSTAR":0.00013465771,"MEAN_MOTION_DOT":3.833e-5,"MEAN_MOTION_DDOT":0}]
